[{"OBJECT_NAME":"ICEYE-X36","OBJECT_ID":"2024-043F","EPOCH":"2026-03-09T21:10:59.920608","MEAN_MOTION":15.05951442,"ECCENTRICITY":0.00048011,"INCLINATION":97.8198,"RA_OF_ASC_NODE":205.3571,"ARG_OF_PERICENTER":299.2298,"MEAN_ANOMALY":60.8448,"EPHEMERIS_TYPE":0,"CLASSIFICATION_TYPE":"U","NORAD_CAT_ID":59103,"ELEMENT_SET_NO":999,"REV_AT_EPOCH":11019,"BSTAR":0.00042378527,"MEAN_MOTION_DOT":6.107e-5,"MEAN_MOTION_DDOT":0},{"OBJECT_NAME":"STARLINK-34926","OBJECT_ID":"2025-175W","EPOCH":"2026-03-09T14:43:25.355424","MEAN_MOTION":15.05656828,"ECCENTRICITY":0.000305,"INCLINATION":97.602,"RA_OF_ASC_NODE":302.6561,"ARG_OF_PERICENTER":98.7357,"MEAN_ANOMALY":261.4215,"EPHEMERIS_TYPE":0,"CLASSIFICATION_TYPE":"U","NORAD_CAT_ID":65194,"ELEMENT_SET_NO":999,"REV_AT_EPOCH":3260,"BSTAR":0.00051926,"MEAN_MOTION_DOT":7.441e-5,"MEAN_MOTION_DDOT":0}]
